CCSDS_OMM_VERS = 2.0
CREATION_DATE  = 
ORIGINATOR     = 

OBJECT_NAME    = CZ-2C R/B
OBJECT_ID      = 2022-132E
CENTER_NAME    = EARTH
REF_FRAME      = TEME
TIME_SYSTEM    = UTC
MEAN_ELEMENT_THEORY = SGP/SGP4

EPOCH          = 2026-02-27T05:53:07.050336
MEAN_MOTION    = 15.60824735
ECCENTRICITY   = .002063
INCLINATION    = 97.2966
RA_OF_ASC_NODE = 61.2537
ARG_OF_PERICENTER = 124.6695
MEAN_ANOMALY   = 235.6511

EPHEMERIS_TYPE = 0
CLASSIFICATION_TYPE = U
NORAD_CAT_ID   = 54039
ELEMENT_SET_NO = 999
REV_AT_EPOCH   = 18874
BSTAR          = .52605907E-3
MEAN_MOTION_DOT = .44352E-3
MEAN_MOTION_DDOT = 0

CCSDS_OMM_VERS = 2.0
CREATION_DATE  = 
ORIGINATOR     = 

OBJECT_NAME    = GSLV R/B
OBJECT_ID      = 2022-138AN
CENTER_NAME    = EARTH
REF_FRAME      = TEME
TIME_SYSTEM    = UTC
MEAN_ELEMENT_THEORY = SGP/SGP4

EPOCH          = 2026-02-27T06:59:04.710336
MEAN_MOTION    = 14.96683580
ECCENTRICITY   = .00215253
INCLINATION    = 87.3876
RA_OF_ASC_NODE = 169.8419
ARG_OF_PERICENTER = 183.0915
MEAN_ANOMALY   = 177.0187

EPHEMERIS_TYPE = 0
CLASSIFICATION_TYPE = U
NORAD_CAT_ID   = 54149
ELEMENT_SET_NO = 999
REV_AT_EPOCH   = 18237
BSTAR          = .29062638E-3
MEAN_MOTION_DOT = .3359E-4
MEAN_MOTION_DDOT = 0

CCSDS_OMM_VERS = 2.0
CREATION_DATE  = 
ORIGINATOR     = 

OBJECT_NAME    = XRISM
OBJECT_ID      = 2023-137A
CENTER_NAME    = EARTH
REF_FRAME      = TEME
TIME_SYSTEM    = UTC
MEAN_ELEMENT_THEORY = SGP/SGP4

EPOCH          = 2026-02-27T04:56:58.509600
MEAN_MOTION    = 15.11352967
ECCENTRICITY   = .00082458
INCLINATION    = 31.0035
RA_OF_ASC_NODE = 351.4628
ARG_OF_PERICENTER = 293.8869
MEAN_ANOMALY   = 66.0906

EPHEMERIS_TYPE = 0
CLASSIFICATION_TYPE = U
NORAD_CAT_ID   = 57800
ELEMENT_SET_NO = 999
REV_AT_EPOCH   = 13620
BSTAR          = .36293141E-3
MEAN_MOTION_DOT = .6375E-4
MEAN_MOTION_DDOT = 0

CCSDS_OMM_VERS = 2.0
CREATION_DATE  = 
ORIGINATOR     = 

OBJECT_NAME    = ACS3
OBJECT_ID      = 2024-077B
CENTER_NAME    = EARTH
REF_FRAME      = TEME
TIME_SYSTEM    = UTC
MEAN_ELEMENT_THEORY = SGP/SGP4

EPOCH          = 2026-02-27T06:30:52.772832
MEAN_MOTION    = 13.89093417
ECCENTRICITY   = .00529433
INCLINATION    = 97.2123
RA_OF_ASC_NODE = 1.7255
ARG_OF_PERICENTER = 105.3549
MEAN_ANOMALY   = 255.3473

EPHEMERIS_TYPE = 0
CLASSIFICATION_TYPE = U
NORAD_CAT_ID   = 59588
ELEMENT_SET_NO = 999
REV_AT_EPOCH   = 9275
BSTAR          = .16359904E-1
MEAN_MOTION_DOT = .20097E-3
MEAN_MOTION_DDOT = 0

CCSDS_OMM_VERS = 2.0
CREATION_DATE  = 
ORIGINATOR     = 

OBJECT_NAME    = SZ-21 MODULE
OBJECT_ID      = 2025-246C
CENTER_NAME    = EARTH
REF_FRAME      = TEME
TIME_SYSTEM    = UTC
MEAN_ELEMENT_THEORY = SGP/SGP4

EPOCH          = 2026-02-26T16:09:22.254336
MEAN_MOTION    = 15.67604463
ECCENTRICITY   = .00014338
INCLINATION    = 41.4744
RA_OF_ASC_NODE = 271.1302
ARG_OF_PERICENTER = 288.0377
MEAN_ANOMALY   = 72.0308

EPHEMERIS_TYPE = 0
CLASSIFICATION_TYPE = U
NORAD_CAT_ID   = 66515
ELEMENT_SET_NO = 999
REV_AT_EPOCH   = 1634
BSTAR          = .3336204E-3
MEAN_MOTION_DOT = .37285E-3
MEAN_MOTION_DDOT = 0

