CZ-2C R/B               
1 54039U 22132E   26058.24522049  .00044352  00000+0  52606-3 0  9999
2 54039  97.2966  61.2537 0020630 124.6695 235.6511 15.60824735188742
GSLV R/B                
1 54149U 22138AN  26058.29102674  .00003359  00000+0  29063-3 0  9993
2 54149  87.3876 169.8419 0021525 183.0915 177.0187 14.96683580182376
XRISM                   
1 57800U 23137A   26058.20623275  .00006375  00000+0  36293-3 0  9990
2 57800  31.0035 351.4628 0008245 293.8869  66.0906 15.11352967136206
ACS3                    
1 59588U 24077B   26058.27144413  .00020097  00000+0  16360-1 0  9996
2 59588  97.2123   1.7255 0052943 105.3549 255.3473 13.89093417 92758
SZ-21 MODULE            
1 66515U 25246C   26057.67317424  .00037285  00000+0  33362-3 0  9990
2 66515  41.4744 271.1302 0001433 288.0377  72.0308 15.67604463 16347
